HIMAWARI-8              
1 40267U 14060A   24194.65847228 -.00000264  00000+0  00000+0 0  9993
2 40267   0.0427 222.1584 0001038 257.3893 189.1834  1.00273602 35695
